[{"OBJECT_NAME":"DONGPO 10","OBJECT_ID":"2022-167H","EPOCH":"2026-03-09T22:44:56.137344","MEAN_MOTION":15.322785,"ECCENTRICITY":0.00061655,"INCLINATION":97.685,"RA_OF_ASC_NODE":235.0962,"ARG_OF_PERICENTER":106.9526,"MEAN_ANOMALY":253.2392,"EPHEMERIS_TYPE":0,"CLASSIFICATION_TYPE":"U","NORAD_CAT_ID":54689,"ELEMENT_SET_NO":999,"REV_AT_EPOCH":18015,"BSTAR":0.00049390523,"MEAN_MOTION_DOT":0.00015333,"MEAN_MOTION_DDOT":0},{"OBJECT_NAME":"STARLINK-34636","OBJECT_ID":"2025-157M","EPOCH":"2026-03-09T05:38:11.170464","MEAN_MOTION":15.30235884,"ECCENTRICITY":0.0001852,"INCLINATION":53.1617,"RA_OF_ASC_NODE":347.817,"ARG_OF_PERICENTER":143.2793,"MEAN_ANOMALY":216.8335,"EPHEMERIS_TYPE":0,"CLASSIFICATION_TYPE":"U","NORAD_CAT_ID":64915,"ELEMENT_SET_NO":999,"REV_AT_EPOCH":3605,"BSTAR":0.0012264787,"MEAN_MOTION_DOT":0.00036183,"MEAN_MOTION_DDOT":0}]
